CCSDS_OMM_VERS = 2.0
CREATION_DATE  = 
ORIGINATOR     = 

OBJECT_NAME    = GLOBAL-33
OBJECT_ID      = 2025-267A
CENTER_NAME    = EARTH
REF_FRAME      = TEME
TIME_SYSTEM    = UTC
MEAN_ELEMENT_THEORY = SGP/SGP4

EPOCH          = 2025-12-18T04:57:13.101696
MEAN_MOTION    = 15.31667898
ECCENTRICITY   = .0003598
INCLINATION    = 42.0218
RA_OF_ASC_NODE = 25.4335
ARG_OF_PERICENTER = 120.4223
MEAN_ANOMALY   = 239.6970

EPHEMERIS_TYPE = 0
CLASSIFICATION_TYPE = U
NORAD_CAT_ID   = 66554
ELEMENT_SET_NO = 999
REV_AT_EPOCH   = 424
BSTAR          = .37991492E-3
MEAN_MOTION_DOT = .11636E-3
MEAN_MOTION_DDOT = 0

CCSDS_OMM_VERS = 2.0
CREATION_DATE  = 
ORIGINATOR     = 

OBJECT_NAME    = ELECTRON KICK STAGE R/B
OBJECT_ID      = 2025-267B
CENTER_NAME    = EARTH
REF_FRAME      = TEME
TIME_SYSTEM    = UTC
MEAN_ELEMENT_THEORY = SGP/SGP4

EPOCH          = 2025-12-18T06:07:15.055968
MEAN_MOTION    = 15.33072736
ECCENTRICITY   = .00067564
INCLINATION    = 42.0196
RA_OF_ASC_NODE = 24.9307
ARG_OF_PERICENTER = 98.5116
MEAN_ANOMALY   = 261.6488

EPHEMERIS_TYPE = 0
CLASSIFICATION_TYPE = U
NORAD_CAT_ID   = 66555
ELEMENT_SET_NO = 999
REV_AT_EPOCH   = 425
BSTAR          = .70622545E-3
MEAN_MOTION_DOT = .22888E-3
MEAN_MOTION_DDOT = 0

CCSDS_OMM_VERS = 2.0
CREATION_DATE  = 
ORIGINATOR     = 

OBJECT_NAME    = STARLINK-35699
OBJECT_ID      = 2025-268A
CENTER_NAME    = EARTH
REF_FRAME      = TEME
TIME_SYSTEM    = UTC
MEAN_ELEMENT_THEORY = SGP/SGP4

EPOCH          = 2025-12-18T06:16:58.643040
MEAN_MOTION    = 15.50604014
ECCENTRICITY   = .00002854
INCLINATION    = 43.0006
RA_OF_ASC_NODE = 88.9063
ARG_OF_PERICENTER = 296.0515
MEAN_ANOMALY   = 64.0315

EPHEMERIS_TYPE = 0
CLASSIFICATION_TYPE = U
NORAD_CAT_ID   = 66557
ELEMENT_SET_NO = 999
REV_AT_EPOCH   = 548
BSTAR          = .17607106E-2
MEAN_MOTION_DOT = .104432E-2
MEAN_MOTION_DDOT = 0

CCSDS_OMM_VERS = 2.0
CREATION_DATE  = 
ORIGINATOR     = 

OBJECT_NAME    = STARLINK-35695
OBJECT_ID      = 2025-268B
CENTER_NAME    = EARTH
REF_FRAME      = TEME
TIME_SYSTEM    = UTC
MEAN_ELEMENT_THEORY = SGP/SGP4

EPOCH          = 2025-12-18T00:05:28.220640
MEAN_MOTION    = 15.50633257
ECCENTRICITY   = .00028075
INCLINATION    = 43.0005
RA_OF_ASC_NODE = 90.4106
ARG_OF_PERICENTER = 280.5511
MEAN_ANOMALY   = 79.5033

EPHEMERIS_TYPE = 0
CLASSIFICATION_TYPE = U
NORAD_CAT_ID   = 66558
ELEMENT_SET_NO = 999
REV_AT_EPOCH   = 544
BSTAR          = .18156431E-2
MEAN_MOTION_DOT = .107869E-2
MEAN_MOTION_DDOT = 0

CCSDS_OMM_VERS = 2.0
CREATION_DATE  = 
ORIGINATOR     = 

OBJECT_NAME    = STARLINK-35419
OBJECT_ID      = 2025-268C
CENTER_NAME    = EARTH
REF_FRAME      = TEME
TIME_SYSTEM    = UTC
MEAN_ELEMENT_THEORY = SGP/SGP4

EPOCH          = 2025-12-18T00:04:57.419040
MEAN_MOTION    = 15.50581937
ECCENTRICITY   = .00018951
INCLINATION    = 43.0022
RA_OF_ASC_NODE = 90.4094
ARG_OF_PERICENTER = 275.3774
MEAN_ANOMALY   = 84.6870

EPHEMERIS_TYPE = 0
CLASSIFICATION_TYPE = U
NORAD_CAT_ID   = 66559
ELEMENT_SET_NO = 999
REV_AT_EPOCH   = 544
BSTAR          = .15246885E-2
MEAN_MOTION_DOT = .90152E-3
MEAN_MOTION_DDOT = 0

CCSDS_OMM_VERS = 2.0
CREATION_DATE  = 
ORIGINATOR     = 

OBJECT_NAME    = STARLINK-35411
OBJECT_ID      = 2025-268D
CENTER_NAME    = EARTH
REF_FRAME      = TEME
TIME_SYSTEM    = UTC
MEAN_ELEMENT_THEORY = SGP/SGP4

EPOCH          = 2025-12-18T00:04:28.174368
MEAN_MOTION    = 15.50600110
ECCENTRICITY   = .00009925
INCLINATION    = 43.0001
RA_OF_ASC_NODE = 90.4058
ARG_OF_PERICENTER = 284.0327
MEAN_ANOMALY   = 76.0423

EPHEMERIS_TYPE = 0
CLASSIFICATION_TYPE = U
NORAD_CAT_ID   = 66560
ELEMENT_SET_NO = 999
REV_AT_EPOCH   = 544
BSTAR          = .19422689E-2
MEAN_MOTION_DOT = .115382E-2
MEAN_MOTION_DDOT = 0

CCSDS_OMM_VERS = 2.0
CREATION_DATE  = 
ORIGINATOR     = 

OBJECT_NAME    = STARLINK-35305
OBJECT_ID      = 2025-268E
CENTER_NAME    = EARTH
REF_FRAME      = TEME
TIME_SYSTEM    = UTC
MEAN_ELEMENT_THEORY = SGP/SGP4

EPOCH          = 2025-12-18T00:03:29.017152
MEAN_MOTION    = 15.50603624
ECCENTRICITY   = .00009191
INCLINATION    = 43.0009
RA_OF_ASC_NODE = 90.4008
ARG_OF_PERICENTER = 275.7133
MEAN_ANOMALY   = 84.3622

EPHEMERIS_TYPE = 0
CLASSIFICATION_TYPE = U
NORAD_CAT_ID   = 66561
ELEMENT_SET_NO = 999
REV_AT_EPOCH   = 544
BSTAR          = .18887599E-2
MEAN_MOTION_DOT = .112161E-2
MEAN_MOTION_DDOT = 0

CCSDS_OMM_VERS = 2.0
CREATION_DATE  = 
ORIGINATOR     = 

OBJECT_NAME    = STARLINK-35579
OBJECT_ID      = 2025-268F
CENTER_NAME    = EARTH
REF_FRAME      = TEME
TIME_SYSTEM    = UTC
MEAN_ELEMENT_THEORY = SGP/SGP4

EPOCH          = 2025-12-18T00:04:00.227424
MEAN_MOTION    = 15.50586039
ECCENTRICITY   = .00017317
INCLINATION    = 43.0006
RA_OF_ASC_NODE = 90.4028
ARG_OF_PERICENTER = 264.7288
MEAN_ANOMALY   = 95.3375

EPHEMERIS_TYPE = 0
CLASSIFICATION_TYPE = U
NORAD_CAT_ID   = 66562
ELEMENT_SET_NO = 999
REV_AT_EPOCH   = 544
BSTAR          = .12420253E-2
MEAN_MOTION_DOT = .73226E-3
MEAN_MOTION_DDOT = 0

CCSDS_OMM_VERS = 2.0
CREATION_DATE  = 
ORIGINATOR     = 

OBJECT_NAME    = STARLINK-35437
OBJECT_ID      = 2025-268G
CENTER_NAME    = EARTH
REF_FRAME      = TEME
TIME_SYSTEM    = UTC
MEAN_ELEMENT_THEORY = SGP/SGP4

EPOCH          = 2025-12-18T00:02:59.029440
MEAN_MOTION    = 15.50597611
ECCENTRICITY   = .00016674
INCLINATION    = 42.9987
RA_OF_ASC_NODE = 90.3988
ARG_OF_PERICENTER = 275.2457
MEAN_ANOMALY   = 84.8212

EPHEMERIS_TYPE = 0
CLASSIFICATION_TYPE = U
NORAD_CAT_ID   = 66563
ELEMENT_SET_NO = 999
REV_AT_EPOCH   = 544
BSTAR          = .11024154E-2
MEAN_MOTION_DOT = .64914E-3
MEAN_MOTION_DDOT = 0

CCSDS_OMM_VERS = 2.0
CREATION_DATE  = 
ORIGINATOR     = 

OBJECT_NAME    = STARLINK-35358
OBJECT_ID      = 2025-268H
CENTER_NAME    = EARTH
REF_FRAME      = TEME
TIME_SYSTEM    = UTC
MEAN_ELEMENT_THEORY = SGP/SGP4

EPOCH          = 2025-12-18T00:02:29.171328
MEAN_MOTION    = 15.50596952
ECCENTRICITY   = .00023862
INCLINATION    = 43.0032
RA_OF_ASC_NODE = 90.3946
ARG_OF_PERICENTER = 270.3496
MEAN_ANOMALY   = 89.7090

EPHEMERIS_TYPE = 0
CLASSIFICATION_TYPE = U
NORAD_CAT_ID   = 66564
ELEMENT_SET_NO = 999
REV_AT_EPOCH   = 544
BSTAR          = .11847753E-2
MEAN_MOTION_DOT = .69834E-3
MEAN_MOTION_DDOT = 0

CCSDS_OMM_VERS = 2.0
CREATION_DATE  = 
ORIGINATOR     = 

OBJECT_NAME    = STARLINK-35893
OBJECT_ID      = 2025-268J
CENTER_NAME    = EARTH
REF_FRAME      = TEME
TIME_SYSTEM    = UTC
MEAN_ELEMENT_THEORY = SGP/SGP4

EPOCH          = 2025-12-18T00:01:59.584512
MEAN_MOTION    = 15.50595913
ECCENTRICITY   = .00021644
INCLINATION    = 43.0022
RA_OF_ASC_NODE = 90.3916
ARG_OF_PERICENTER = 269.1523
MEAN_ANOMALY   = 90.9090

EPHEMERIS_TYPE = 0
CLASSIFICATION_TYPE = U
NORAD_CAT_ID   = 66565
ELEMENT_SET_NO = 999
REV_AT_EPOCH   = 544
BSTAR          = .12222633E-2
MEAN_MOTION_DOT = .72071E-3
MEAN_MOTION_DDOT = 0

CCSDS_OMM_VERS = 2.0
CREATION_DATE  = 
ORIGINATOR     = 

OBJECT_NAME    = STARLINK-35871
OBJECT_ID      = 2025-268K
CENTER_NAME    = EARTH
REF_FRAME      = TEME
TIME_SYSTEM    = UTC
MEAN_ELEMENT_THEORY = SGP/SGP4

EPOCH          = 2025-12-18T00:00:02.000160
MEAN_MOTION    = 15.50546235
ECCENTRICITY   = .00015524
INCLINATION    = 43.0010
RA_OF_ASC_NODE = 90.3927
ARG_OF_PERICENTER = 267.7288
MEAN_ANOMALY   = 86.6648

EPHEMERIS_TYPE = 0
CLASSIFICATION_TYPE = U
NORAD_CAT_ID   = 66566
ELEMENT_SET_NO = 999
REV_AT_EPOCH   = 551
BSTAR          = .28776035E-3
MEAN_MOTION_DOT = .16556E-3
MEAN_MOTION_DDOT = 0

