GLOBAL-33               
1 66554U 25267A   25352.20640164  .00011636  00000+0  37991-3 0  9996
2 66554  42.0218  25.4335 0003598 120.4223 239.6970 15.31667898  4246
ELECTRON KICK STAGE R/B 
1 66555U 25267B   25352.25503537  .00022888  00000+0  70623-3 0  9994
2 66555  42.0196  24.9307 0006756  98.5116 261.6488 15.33072736  4253
STARLINK-35699          
1 66557U 25268A   25352.26178985  .00104432  00000+0  17607-2 0  9991
2 66557  43.0006  88.9063 0000285 296.0515  64.0315 15.50604014  5483
STARLINK-35695          
1 66558U 25268B   25352.00379885  .00107869  00000+0  18156-2 0  9993
2 66558  43.0005  90.4106 0002807 280.5511  79.5033 15.50633257  5440
STARLINK-35419          
1 66559U 25268C   25352.00344235  .00090152  00000+0  15247-2 0  9999
2 66559  43.0022  90.4094 0001895 275.3774  84.6870 15.50581937  5448
STARLINK-35411          
1 66560U 25268D   25352.00310387  .00115382  00000+0  19423-2 0  9995
2 66560  43.0001  90.4058 0000992 284.0327  76.0423 15.50600110  5449
STARLINK-35305          
1 66561U 25268E   25352.00241918  .00112161  00000+0  18888-2 0  9995
2 66561  43.0009  90.4008 0000919 275.7133  84.3622 15.50603624  5440
STARLINK-35579          
1 66562U 25268F   25352.00278041  .00073226  00000+0  12420-2 0  9997
2 66562  43.0006  90.4028 0001731 264.7288  95.3375 15.50586039  5449
STARLINK-35437          
1 66563U 25268G   25352.00207210  .00064914  00000+0  11024-2 0  9991
2 66563  42.9987  90.3988 0001667 275.2457  84.8212 15.50597611  5444
STARLINK-35358          
1 66564U 25268H   25352.00172652  .00069834  00000+0  11848-2 0  9993
2 66564  43.0032  90.3946 0002386 270.3496  89.7090 15.50596952  5445
STARLINK-35893          
1 66565U 25268J   25352.00138408  .00072071  00000+0  12223-2 0  9990
2 66565  43.0022  90.3916 0002164 269.1523  90.9090 15.50595913  5443
STARLINK-35871          
1 66566U 25268K   25352.00002315  .00016556  00000+0  28776-3 0  9995
2 66566  43.0010  90.3927 0001552 267.7288  86.6648 15.50546235  5517
